H1 CPF 01  gfz 2022 10 06 12  7792 tandemx   
H2 1003001  6202 36605    2022 10 06 12 59 42 2022 10 11 00 00 42   120 1 1  0 0 0
H9
10 0 59860  56142.000000  0    3284022.076   3258592.586  -5111732.690
10 0 59860  56262.000000  0    3879340.247   3537318.010  -4468261.303
10 0 59860  56382.000000  0    4411446.984   3744661.563  -3746532.689
10 0 59860  56502.000000  0    4869734.515   3878145.606  -2959117.262
10 0 59860  56622.000000  0    5244834.388   3936749.072  -2119767.189
10 0 59860  56742.000000  0    5528815.471   3920909.918  -1243178.803
10 0 59860  56862.000000  0    5715357.437   3832497.453   -344733.588
10 0 59860  56982.000000  0    5799894.590   3674755.696    559775.869
10 0 59860  57102.000000  0    5779726.769   3452218.233   1454430.644
10 0 59860  57222.000000  0    5654092.429   3170596.007   2323474.505
10 0 59860  57342.000000  0    5424202.570   2836642.138   3151600.104
10 0 59860  57462.000000  0    5093234.424   2457996.312   3924227.087
10 0 59860  57582.000000  0    4666283.835   2043012.215   4627764.298
10 0 59860  57702.000000  0    4150281.047   1600574.182   5249849.097
10 0 59860  57822.000000  0    3553872.084   1139907.601   5779566.128
10 0 59860  57942.000000  0    2887263.439    670385.538   6207635.502
10 0 59860  58062.000000  0    2162040.251    201338.155   6526567.541
10 0 59860  58182.000000  0    1390961.653   -258130.919   6730787.833
10 0 59860  58302.000000  0     587733.652   -699320.502   6816730.949
10 0 59860  58422.000000  0    -233236.673  -1114096.246   6782898.292
10 0 59860  58542.000000  0   -1057099.479  -1495040.013   6629881.854
10 0 59860  58662.000000  0   -1868829.940  -1835582.718   6360353.246
10 0 59860  58782.000000  0   -2653500.032  -2130116.903   5979019.212
10 0 59860  58902.000000  0   -3396552.535  -2374089.634   5492547.320
10 0 59860  59022.000000  0   -4084076.154  -2564075.310   4909456.435
10 0 59860  59142.000000  0   -4703071.174  -2697824.497   4239971.703
10 0 59860  59262.000000  0   -5241701.448  -2774287.694   3495848.693
10 0 59860  59382.000000  0   -5689527.680  -2793613.848   2690169.653
10 0 59860  59502.000000  0   -6037718.198  -2757124.569   1837114.125
10 0 59860  59622.000000  0   -6279231.509  -2667264.527    951705.524
10 0 59860  59742.000000  0   -6408963.372  -2527526.363     49539.009
10 0 59860  59862.000000  0   -6423856.261  -2342353.778   -853500.834
10 0 59860  59982.000000  0   -6322967.796  -2117024.822  -1741529.850
10 0 59860  60102.000000  0   -6107494.470  -1857518.639  -2598952.224
10 0 59860  60222.000000  0   -5780753.019  -1570369.551  -3410740.041
10 0 59860  60342.000000  0   -5348120.131  -1262512.181  -4162699.529
10 0 59860  60462.000000  0   -4816932.674   -941121.793  -4841718.547
10 0 59860  60582.000000  0   -4196351.435   -613453.198  -5435991.274
10 0 59860  60702.000000  0   -3497191.396   -286682.626  -5935215.631
10 0 59860  60822.000000  0   -2731724.394     32244.172  -6330760.863
10 0 59860  60942.000000  0   -1913458.911    336754.101  -6615804.679
10 0 59860  61062.000000  0   -1056900.193    620776.281  -6785439.756
10 0 59860  61182.000000  0    -177295.944    878858.410  -6836748.657
10 0 59860  61302.000000  0     709628.656   1106268.066  -6768847.431
10 0 59860  61422.000000  0    1587944.211   1299076.264  -6582901.369
10 0 59860  61542.000000  0    2441797.819   1454224.698  -6282108.363
10 0 59860  61662.000000  0    3255694.258   1569574.016  -5871649.475
10 0 59860  61782.000000  0    4014773.429   1643932.146  -5358607.622
10 0 59860  61902.000000  0    4705080.945   1677063.167  -4751857.307
10 0 59860  62022.000000  0    5313829.228   1669676.543  -4061922.607
10 0 59860  62142.000000  0    5829641.288   1623395.816  -3300804.018
10 0 59860  62262.000000  0    6242772.742   1540707.375  -2481777.924
10 0 59860  62382.000000  0    6545308.371   1424890.566  -1619169.756
10 0 59860  62502.000000  0    6731325.843   1279929.972   -728103.091
10 0 59860  62622.000000  0    6797021.904   1110411.102    175769.400
10 0 59860  62742.000000  0    6740795.955    921403.128   1076547.456
10 0 59860  62862.000000  0    6563292.040    718331.320   1958369.909
10 0 59860  62982.000000  0    6267395.316    506841.010   2805704.284
10 0 59860  63102.000000  0    5858181.526    292657.927   3603628.377
10 0 59860  63222.000000  0    5342823.269     81448.067   4338099.839
10 0 59860  63342.000000  0    4730455.052   -121317.730   4996205.594
10 0 59860  63462.000000  0    4032002.076   -310493.847   5566390.710
10 0 59860  63582.000000  0    3259973.966   -481380.151   6038658.258
10 0 59860  63702.000000  0    2428232.635   -629828.628   6404739.408
10 0 59860  63822.000000  0    1551737.863   -752336.377   6658232.437
10 0 59860  63942.000000  0     646274.201   -846122.604   6794710.035
10 0 59860  64062.000000  0    -271836.060   -909188.034   6811791.139
10 0 59860  64182.000000  0   -1186026.822   -940355.988   6709178.673
10 0 59860  64302.000000  0   -2079785.820   -939294.347   6488663.764
10 0 59860  64422.000000  0   -2936951.100   -906517.626   6154096.069
10 0 59860  64542.000000  0   -3742003.114   -843369.503   5711322.332
10 0 59860  64662.000000  0   -4480349.553   -751986.734   5168091.150
10 0 59860  64782.000000  0   -5138596.400   -635244.780   4533923.311
10 0 59860  64902.000000  0   -5704798.851   -496685.533   3819949.075
10 0 59860  65022.000000  0   -6168686.624   -340428.843   3038715.272
10 0 59860  65142.000000  0   -6521859.825   -171069.612   2203966.520
10 0 59860  65262.000000  0   -6757951.865      6437.772   1330401.318
10 0 59860  65382.000000  0   -6872752.401    186903.821    433407.212
10 0 59860  65502.000000  0   -6864287.231    365034.512   -471218.385
10 0 59860  65622.000000  0   -6732852.671    535565.170  -1367555.780
10 0 59860  65742.000000  0   -6481003.303    693393.428  -2239851.297
10 0 59860  65862.000000  0   -6113497.052    833708.142  -3072800.273
10 0 59860  65982.000000  0   -5637195.724    952111.592  -3851822.573
10 0 59860  66102.000000  0   -5060922.898   1044731.135  -4563318.669
10 0 59860  66222.000000  0   -4395287.442   1108317.873  -5194903.803
10 0 59860  66342.000000  0   -3652476.223   1140330.146  -5735616.362
10 0 59860  66462.000000  0   -2846022.141   1139000.214  -6176098.253
10 0 59860  66582.000000  0   -1990552.279   1103382.602  -6508745.323
10 0 59860  66702.000000  0   -1101520.856   1033385.378  -6727827.463
10 0 59860  66822.000000  0    -194932.006    929782.177  -6829575.872
10 0 59860  66942.000000  0     712941.414    794205.613  -6812239.937
10 0 59860  67062.000000  0    1605841.997    629122.140  -6676116.440
10 0 59860  67182.000000  0    2467813.511    437788.231  -6423545.621
10 0 59860  67302.000000  0    3283480.251    224189.147  -6058875.158
10 0 59860  67422.000000  0    4038318.028     -7039.426  -5588392.484
10 0 59860  67542.000000  0    4718911.233   -250706.126  -5020226.741
10 0 59860  67662.000000  0    5313195.479   -501172.657  -4364220.912
10 0 59860  67782.000000  0    5810679.295   -752475.760  -3631771.425
10 0 59860  67902.000000  0    6202639.294   -998459.671  -2835638.928
10 0 59860  68022.000000  0    6482285.300  -1232916.889  -1989731.993
10 0 59860  68142.000000  0    6644890.906  -1449733.445  -1108866.004
10 0 59860  68262.000000  0    6687884.531  -1643035.188   -208501.792
10 0 59860  68382.000000  0    6610898.988  -1807331.661    695530.473
10 0 59860  68502.000000  0    6415776.909  -1937653.835   1587317.788
10 0 59860  68622.000000  0    6106530.991  -2029681.972   2451153.166
10 0 59860  68742.000000  0    5689260.750  -2079860.125   3271821.706
10 0 59860  68862.000000  0    5172026.473  -2085493.809   4034875.969
10 0 59860  68982.000000  0    4564685.275  -2044829.290   4726894.192
10 0 59860  69102.000000  0    3878695.433  -1957111.699   5335717.619
10 0 59860  69222.000000  0    3126891.559  -1822622.135   5850664.484
10 0 59860  69342.000000  0    2323235.203  -1642692.050   6262713.316
10 0 59860  69462.000000  0    1482549.815  -1419695.382   6564655.089
10 0 59860  69582.000000  0     620243.110  -1157018.735   6751213.739
10 0 59860  69702.000000  0    -247977.653   -859009.306   6819132.624
10 0 59860  69822.000000  0   -1106391.538   -530902.259   6767226.612
10 0 59860  69942.000000  0   -1939547.164   -178728.964   6596401.158
10 0 59860  70062.000000  0   -2732539.503    190793.436   6309637.616
10 0 59860  70182.000000  0   -3471276.489    570389.115   5911945.368
10 0 59860  70302.000000  0   -4142732.028    952365.035   5410280.301
10 0 59860  70422.000000  0   -4735180.974   1328764.691   4813429.176
10 0 59860  70542.000000  0   -5238411.024   1691532.218   4131861.262
10 0 59860  70662.000000  0   -5643907.052   2032682.747   3377548.042
10 0 59860  70782.000000  0   -5945003.294   2344475.503   2563754.760
10 0 59860  70902.000000  0   -6137001.218   2619585.881   1704806.714
10 0 59860  71022.000000  0   -6217249.839   2851272.648    815833.064
10 0 59860  71142.000000  0   -6185184.042   3033535.415    -87507.296
10 0 59860  71262.000000  0   -6042320.641   3161258.200   -989309.911
10 0 59860  71382.000000  0   -5792212.520   3230335.131  -1873713.704
10 0 59860  71502.000000  0   -5440361.954   3237775.991  -2725188.981
10 0 59860  71622.000000  0   -4994093.975   3181787.780  -3528816.604
10 0 59860  71742.000000  0   -4462395.685   3061831.136  -4270552.134
10 0 59860  71862.000000  0   -3855725.599   2878650.627  -4937469.421
10 0 59860  71982.000000  0   -3185799.066   2634278.553  -5517980.085
10 0 59860  72102.000000  0   -2465356.082   2332013.576  -6002025.136
10 0 59860  72222.000000  0   -1707915.348   1976374.962  -6381239.815
10 0 59860  72342.000000  0    -927518.548   1573032.277  -6649086.012
10 0 59860  72462.000000  0    -138472.914   1128713.855  -6800953.638
10 0 59860  72582.000000  0     644905.597    651095.028  -6834230.825
99
